NORAD_CAT_ID,OBJECT_NAME,OBJECT_TYPE,EPOCH,MEAN_MOTION,ECCENTRICITY,INCLINATION,RA_OF_ASC_NODE,ARG_OF_PERICENTER,MEAN_ANOMALY,BSTAR,MEAN_MOTION_DOT,MEAN_MOTION_DDOT,TLE_LINE0,TLE_LINE1,TLE_LINE2,SEMIMAJOR_AXIS,PERIOD,APOGEE,PERIGEE,DECAYED
54206.0,STARLINK-5264,PAYLOAD,2023-05-19 23:21:41,15.08842414,0.0001038,53.2184,239.0764,95.4972,264.6138,5.334e-05,5.61e-06,0.0,0 STARLINK-5264,1 54206U 22141BB  23139.97339380  .00000561  00000-0  53340-4 0  9998,2 54206  53.2184 239.0764 0001038  95.4972 264.6138 15.08842414 32025,6917.873,95.437,540.456,539.02,0.0
54206.0,STARLINK-5264,PAYLOAD,2023-05-20 12:04:46,15.08860081,0.000144,53.2171,236.7003,107.4902,252.6248,-0.00021927,-3.778e-05,0.0,0 STARLINK-5264,1 54206U 22141BB  23140.50331310 -.00003778  00000-0 -21927-3 0  9994,2 54206  53.2171 236.7003 0001440 107.4902 252.6248 15.08860081 31876,6917.819,95.436,540.68,538.688,0.0
54206.0,STARLINK-5264,PAYLOAD,2023-05-21 08:44:47,15.08837376,0.0001166,53.217,232.8343,90.6593,269.4533,-1.4046e-05,-5.11e-06,0.0,0 STARLINK-5264,1 54206U 22141BB  23141.36443815 -.00000511  00000-0 -14046-4 0  9990,2 54206  53.2170 232.8343 0001166  90.6593 269.4533 15.08837376 32238,6917.888,95.438,540.56,538.947,0.0
54206.0,STARLINK-5264,PAYLOAD,2023-05-21 11:55:32,15.08847806,0.0001145,53.2169,232.2388,125.7282,234.3817,2.1023e-05,4.7e-07,0.0,0 STARLINK-5264,1 54206U 22141BB  23141.49690825  .00000047  00000-0  21023-4 0  9994,2 54206  53.2169 232.2388 0001145 125.7282 234.3817 15.08847806 32023,6917.857,95.437,540.514,538.929,0.0
54206.0,STARLINK-5264,PAYLOAD,2023-05-21 15:06:19,15.08849453,0.0001316,53.2174,231.6434,86.6712,273.4431,3.4942e-05,2.68e-06,0.0,0 STARLINK-5264,1 54206U 22141BB  23141.62938821  .00000268  00000-0  34942-4 0  9999,2 54206  53.2174 231.6434 0001316  86.6712 273.4431 15.08849453 32270,6917.851,95.437,540.627,538.806,0.0
54206.0,STARLINK-5264,PAYLOAD,2023-05-21 23:03:15,15.08841711,0.0001201,53.2172,230.1586,82.5526,277.5603,-2.3039e-05,-6.55e-06,0.0,0 STARLINK-5264,1 54206U 22141BB  23141.96059362 -.00000655  00000-0 -23039-4 0  9997,2 54206  53.2172 230.1586 0001201  82.5526 277.5603 15.08841711 32322,6917.875,95.437,540.571,538.909,0.0
54206.0,STARLINK-5264,PAYLOAD,2023-05-22 08:35:35,15.08826137,0.0001238,53.2169,228.374,85.5809,274.5324,-0.00011946,-2.188e-05,0.0,0 STARLINK-5264,1 54206U 22141BB  23142.35804795 -.00002188  00000-0 -11946-3 0  9995,2 54206  53.2169 228.3740 0001238  85.5809 274.5324 15.08826137 32384,6917.923,95.438,540.644,538.931,0.0
54206.0,STARLINK-5264,PAYLOAD,2023-05-22 11:46:21,15.08831388,0.0001111,53.2178,227.7787,82.1228,277.989,-6.2358e-05,-1.28e-05,0.0,0 STARLINK-5264,1 54206U 22141BB  23142.49052349 -.00001280  00000-0 -62358-4 0  9996,2 54206  53.2178 227.7787 0001111  82.1228 277.9890 15.08831388 32172,6917.907,95.438,540.54,539.003,0.0
54206.0,STARLINK-5264,PAYLOAD,2023-05-22 13:21:44,15.08835499,0.0001096,53.2181,227.4801,86.7916,273.3201,-9.8328e-05,-1.852e-05,0.0,0 STARLINK-5264,1 54206U 22141BB  23142.55676243 -.00001852  00000-0 -98328-4 0  9999,2 54206  53.2181 227.4801 0001096  86.7916 273.3201 15.08835499 32416,6917.894,95.438,540.517,539.001,0.0
54206.0,STARLINK-5264,PAYLOAD,2023-05-23 11:37:08,15.08836408,0.0001039,53.2173,223.3191,86.2877,273.8234,-0.00011246,-2.077e-05,0.0,0 STARLINK-5264,1 54206U 22141BB  23143.48412692 -.00002077  00000-0 -11246-3 0  9991,2 54206  53.2173 223.3191 0001039  86.2877 273.8234 15.08836408 32324,6917.891,95.438,540.475,539.038,0.0
54206.0,STARLINK-5264,PAYLOAD,2023-05-23 22:44:49,15.08843324,0.0001034,53.2176,221.2371,85.4438,274.6672,-5.3637e-05,-1.141e-05,0.0,0 STARLINK-5264,1 54206U 22141BB  23143.94780058 -.00001141  00000-0 -53637-4 0  9998,2 54206  53.2176 221.2371 0001034  85.4438 274.6672 15.08843324 32626,6917.87,95.437,540.451,539.02,0.0
54206.0,STARLINK-5264,PAYLOAD,2023-05-24 14:38:40,15.08842109,0.0001097,53.2174,218.2627,82.3268,277.7849,0.00013125,1.802e-05,0.0,0 STARLINK-5264,1 54206U 22141BB  23144.61019598  .00001802  00000-0  13125-3 0  9996,2 54206  53.2174 218.2627 0001097  82.3268 277.7849 15.08842109 32495,6917.874,95.437,540.498,538.98,0.0
54206.0,STARLINK-5264,PAYLOAD,2023-05-26 00:01:47,15.08834819,0.0001155,53.2167,212.0161,94.8403,265.2721,3.6211e-05,2.88e-06,0.0,0 STARLINK-5264,1 54206U 22141BB  23146.00124456  .00000288  00000-0  36211-4 0  9990,2 54206  53.2167 212.0161 0001155  94.8403 265.2721 15.08834819 32935,6917.896,95.438,540.56,538.962,0.0
54206.0,STARLINK-5264,PAYLOAD,2023-05-26 11:09:29,15.08841758,0.0001226,53.2171,209.9346,109.9376,250.1748,-4.4555e-05,-9.97e-06,0.0,0 STARLINK-5264,1 54206U 22141BB  23146.46492243 -.00000997  00000-0 -44555-4 0  9991,2 54206  53.2171 209.9346 0001226 109.9376 250.1748 15.08841758 32770,6917.875,95.437,540.588,538.892,0.0
54206.0,STARLINK-5264,PAYLOAD,2023-05-27 20:32:35,15.08834882,0.0001136,53.2179,203.6945,100.0792,260.0329,-1.78e-05,-5.71e-06,0.0,0 STARLINK-5264,1 54206U 22141BB  23147.85596809 -.00000571  00000-0 -17800-4 0  9999,2 54206  53.2179 203.6945 0001136 100.0792 260.0329 15.08834882 33213,6917.896,95.438,540.547,538.975,0.0
54206.0,STARLINK-5264,PAYLOAD,2023-05-27 23:43:21,15.08835905,0.0001057,53.2173,203.0985,95.7095,264.4018,-5.2997e-06,-3.72e-06,0.0,0 STARLINK-5264,1 54206U 22141BB  23147.98844713 -.00000372  00000-0 -52997-5 0  9999,2 54206  53.2173 203.0985 0001057  95.7095 264.4018 15.08835905 33000,6917.893,95.438,540.489,539.027,0.0
54206.0,STARLINK-5264,PAYLOAD,2023-05-28 20:23:22,15.08836016,9.99e-05,53.2174,199.2333,89.1336,270.977,1.3899e-05,-6.7e-07,0.0,0 STARLINK-5264,1 54206U 22141BB  23148.84956849 -.00000067  00000-0  13899-4 0  9996,2 54206  53.2174 199.2333 0000999  89.1336 270.9770 15.08836016 33138,6917.893,95.438,540.449,539.066,0.0
54206.0,STARLINK-5264,PAYLOAD,2023-05-29 02:44:55,15.08837028,9.92e-05,53.2173,198.0431,87.5896,272.521,1.9915e-05,2.9e-07,0.0,0 STARLINK-5264,1 54206U 22141BB  23149.11452813  .00000029  00000-0  19915-4 0  9991,2 54206  53.2173 198.0431 0000992  87.5896 272.5210 15.08837028 33400,6917.889,95.438,540.441,539.068,0.0
54206.0,STARLINK-5264,PAYLOAD,2023-05-29 10:41:50,15.08838608,0.0001008,53.2172,196.5563,86.6749,273.4358,3.1801e-05,2.18e-06,0.0,0 STARLINK-5264,1 54206U 22141BB  23149.44572707  .00000218  00000-0  31801-4 0  9990,2 54206  53.2172 196.5563 0001008  86.6749 273.4358 15.08838608 33222,6917.885,95.438,540.447,539.052,0.0
54206.0,STARLINK-5264,PAYLOAD,2023-05-29 20:14:10,15.08835157,0.0001075,53.2168,194.7715,76.2869,283.8242,-7.4415e-06,-4.06e-06,0.0,0 STARLINK-5264,1 54206U 22141BB  23149.84317149 -.00000406  00000-0 -74415-5 0  9991,2 54206  53.2168 194.7715 0001075  76.2869 283.8242 15.08835157 33287,6917.895,95.438,540.504,539.017,0.0
54206.0,STARLINK-5264,PAYLOAD,2023-05-30 08:57:15,15.08831992,0.0001054,53.2167,192.3925,76.2679,283.8431,-9.1417e-06,-4.33e-06,0.0,0 STARLINK-5264,1 54206U 22141BB  23150.37309518 -.00000433  00000-0 -91417-5 0  9993,2 54206  53.2167 192.3925 0001054  76.2679 283.8431 15.08831992 33596,6917.905,95.438,540.499,539.041,0.0
54206.0,STARLINK-5264,PAYLOAD,2023-05-30 12:08:01,15.08834685,0.0001066,53.2168,191.7978,75.9948,284.1162,-1.5974e-05,-5.42e-06,0.0,0 STARLINK-5264,1 54206U 22141BB  23150.50557428 -.00000542  00000-0 -15974-4 0  9997,2 54206  53.2168 191.7978 0001066  75.9948 284.1162 15.08834685 33380,6917.897,95.438,540.499,539.024,0.0
54206.0,STARLINK-5264,PAYLOAD,2023-05-30 20:04:57,15.08838716,0.000107,53.217,190.3112,75.3167,284.7944,1.4332e-05,-6e-07,0.0,0 STARLINK-5264,1 54206U 22141BB  23150.83677115 -.00000060  00000-0  14332-4 0  9990,2 54206  53.2170 190.3112 0001070  75.3167 284.7944 15.08838716 33439,6917.884,95.438,540.49,539.009,0.0
54206.0,STARLINK-5264,PAYLOAD,2023-05-31 02:26:29,15.08841832,0.000105,53.2167,189.1214,74.4834,285.6274,2.6885e-05,1.4e-06,0.0,0 STARLINK-5264,1 54206U 22141BB  23151.10172850  .00000140  00000-0  26885-4 0  9991,2 54206  53.2167 189.1214 0001050  74.4834 285.6274 15.08841832 33702,6917.875,95.437,540.466,539.013,0.0
54206.0,STARLINK-5264,PAYLOAD,2023-05-31 08:48:01,15.08844129,0.0001084,53.2169,187.9325,72.4482,287.6629,3.7306e-05,3.06e-06,0.0,0 STARLINK-5264,1 54206U 22141BB  23151.36668624  .00000306  00000-0  37306-4 0  9992,2 54206  53.2169 187.9325 0001084  72.4482 287.6629 15.08844129 33514,6917.868,95.437,540.483,538.983,0.0
54206.0,STARLINK-5264,PAYLOAD,2023-05-31 19:55:43,15.08840987,0.0001099,53.2173,185.8508,72.1405,287.9707,3.3507e-05,2.46e-06,0.0,0 STARLINK-5264,1 54206U 22141BB  23151.83036728  .00000246  00000-0  33507-4 0  9990,2 54206  53.2173 185.8508 0001099  72.1405 287.9707 15.08840987 33582,6917.877,95.437,540.503,538.982,0.0
54206.0,STARLINK-5264,PAYLOAD,2023-06-01 08:38:49,15.08837308,0.0001249,53.2176,183.4733,66.2962,293.8161,5.7867e-06,-1.96e-06,0.0,0 STARLINK-5264,1 54206U 22141BB  23152.36029165 -.00000196  00000-0  57867-5 0  9997,2 54206  53.2176 183.4733 0001249  66.2962 293.8161 15.08837308 33660,6917.889,95.438,540.618,538.89,0.0
54206.0,STARLINK-5264,PAYLOAD,2023-06-02 11:40:22,15.08839414,0.0001179,53.2173,178.4166,81.8251,278.2874,-3.959e-05,-9.18e-06,0.0,0 STARLINK-5264,1 54206U 22141BB  23153.48637086 -.00000918  00000-0 -39590-4 0  9993,2 54206  53.2173 178.4166 0001179  81.8251 278.2874 15.08839414 33834,6917.882,95.438,540.563,538.932,0.0
54206.0,STARLINK-5264,PAYLOAD,2023-06-03 08:20:23,15.08835833,0.0001152,53.2172,174.55,80.7085,279.4038,-1.5425e-05,-5.33e-06,0.0,0 STARLINK-5264,1 54206U 22141BB  23154.34749316 -.00000533  00000-0 -15425-4 0  9993,2 54206  53.2172 174.5500 0001152  80.7085 279.4038 15.08835833 33966,6917.893,95.438,540.555,538.961,0.0
54206.0,STARLINK-5264,PAYLOAD,2023-06-03 17:52:42,15.08835447,0.0001176,53.2172,172.7661,76.4906,283.6217,-1.4911e-05,-5.25e-06,0.0,0 STARLINK-5264,1 54206U 22141BB  23154.74493432 -.00000525  00000-0 -14911-4 0  9992,2 54206  53.2172 172.7661 0001176  76.4906 283.6217 15.08835447 34254,6917.894,95.438,540.573,538.946,0.0
